{
    "links": {
        "self": "http://www.neowsapp.com/rest/v1/neo/3844016?api_key=iIulBulltgU6a56xZRHN4H3l9WmuAYTsLGpBGhQ2"
    },
    "id": "3844016",
    "neo_reference_id": "3844016",
    "name": "(2019 SY2)",
    "designation": "2019 SY2",
    "nasa_jpl_url": "http://ssd.jpl.nasa.gov/sbdb.cgi?sstr=3844016",
    "absolute_magnitude_h": 26.6,
    "estimated_diameter": {
        "kilometers": {
            "estimated_diameter_min": 0.0127219879,
            "estimated_diameter_max": 0.0284472297
        },
        "meters": {
            "estimated_diameter_min": 12.7219878539,
            "estimated_diameter_max": 28.4472296503
        },
        "miles": {
            "estimated_diameter_min": 0.0079050743,
            "estimated_diameter_max": 0.0176762835
        },
        "feet": {
            "estimated_diameter_min": 41.7388066307,
            "estimated_diameter_max": 93.330808926
        }
    },
    "is_potentially_hazardous_asteroid": false,
    "close_approach_data": [
        {
            "close_approach_date": "2019-09-19",
            "close_approach_date_full": "2019-Sep-19 12:27",
            "epoch_date_close_approach": 1568896020000,
            "relative_velocity": {
                "kilometers_per_second": "12.4983843484",
                "kilometers_per_hour": "44994.183654294",
                "miles_per_hour": "27957.6359489695"
            },
            "miss_distance": {
                "astronomical": "0.0085207395",
                "lunar": "3.3145676655",
                "kilometers": "1274684.480024865",
                "miles": "792052.207938537"
            },
            "orbiting_body": "Earth"
        },
        {
            "close_approach_date": "2019-09-19",
            "close_approach_date_full": "2019-Sep-19 21:25",
            "epoch_date_close_approach": 1568928300000,
            "relative_velocity": {
                "kilometers_per_second": "13.0675729521",
                "kilometers_per_hour": "47043.2626276727",
                "miles_per_hour": "29230.8539366225"
            },
            "miss_distance": {
                "astronomical": "0.0072430291",
                "lunar": "2.8175383199",
                "kilometers": "1083541.725708017",
                "miles": "673281.6078719546"
            },
            "orbiting_body": "Moon"
        }
    ],
    "orbital_data": {
        "orbit_id": "1",
        "orbit_determination_date": "2019-09-24 14:42:04",
        "first_observation_date": "2019-09-22",
        "last_observation_date": "2019-09-24",
        "data_arc_in_days": 2,
        "observations_used": 15,
        "orbit_uncertainty": "8",
        "minimum_orbit_intersection": ".00219557",
        "jupiter_tisserand_invariant": "3.088",
        "epoch_osculation": "2458750.5",
        "eccentricity": ".647652037222251",
        "semi_major_axis": "2.581810781046042",
        "inclination": "2.824791784275122",
        "ascending_node_longitude": "179.7498945064456",
        "orbital_period": "1515.252613826502",
        "perihelion_distance": ".9096957689792018",
        "perihelion_argument": "136.9143981821229",
        "aphelion_distance": "4.253925793112881",
        "perihelion_time": "2458716.936179123101",
        "mean_anomaly": "7.974231758736407",
        "mean_motion": ".2375841471679656",
        "equinox": "J2000",
        "orbit_class": {
            "orbit_class_type": "APO",
            "orbit_class_description": "Near-Earth asteroid orbits which cross the Earth’s orbit similar to that of 1862 Apollo",
            "orbit_class_range": "a (semi-major axis) > 1.0 AU; q (perihelion) < 1.017 AU"
        }
    },
    "is_sentry_object": false
}